KUIPER-00089            
1 64834U 25151U   25291.25003472 -.00572004  00000+0 -41329-1 0  9990
2 64834  51.8916 197.2222 0002902 136.2794   0.0873 15.06145801  5461
KUIPER-00090            
1 64835U 25151V   25291.25003472  .00010086  00000+0  42173-3 0  9996
2 64835  51.8852 194.7520 0005745 154.5978  64.1314 15.24167430  4708
KUIPER-00091            
1 64836U 25151W   25291.25003472 -.01353747  00000+0 -81651-1 0  9996
2 64836  51.8825 196.1285 0007792 145.8571  82.8087 15.13205386  4524
KUIPER-00092            
1 64837U 25151X   25291.25003472 -.00003118  00000+0 -30241-3 0  9991
2 64837  51.8945 200.6828 0006661 123.7094 110.4411 14.89034843  2517
KUIPER-00093            
1 64838U 25151Y   25291.25003472 -.00013466  00000+0 -16843-2 0  9990
2 64838  51.8984 202.9691 0014628 133.1935 240.1425 14.81218941  2178
KUIPER-00094            
1 64839U 25151Z   25291.25003472  .00004631  00000+0  32824-3 0  9991
2 64839  51.8973 197.3075 0007033 141.6501 211.1712 15.06536062  5114
KUIPER-00081            
1 65132U 25171A   25290.83666261  .00056228  00000+0  14903-2 0  9990
2 65132  51.8734  79.6069 0004738   3.9900 356.1124 15.37781205 11606
KUIPER-00088            
1 65133U 25171B   25291.25003472 -.01221383  00000+0 -65954-1 0  9997
2 65133  51.8876  79.2410 0005769 351.4009  63.6782 15.17281189  5535
